[
    {
        "Altitude(m)": 571707.257406162,
        "Argument of Periapsis(deg)": -0.03013754771062987,
        "Eccentricity": 0.0,
        "Inclination(deg)": 97.0,
        "Latitude(deg)": 51.36802679964952,
        "Longitude(deg)": 115.65222528804189,
        "Mean Anomaly(deg)": 128.2258910255833,
        "RAAN(deg)": 30.00792940482468,
        "Satellite Name": "Starlink Shell 3 1655",
        "Satellite Number": 1655,
        "Semi-Major Axis(m)": 6938478.169268562,
        "Time(s)": 760
    },
    {
        "Altitude(m)": 571566.9375282683,
        "Argument of Periapsis(deg)": -0.030534094391032898,
        "Eccentricity": 0.0,
        "Inclination(deg)": 97.0,
        "Latitude(deg)": 50.75453016582095,
        "Longitude(deg)": 115.41867029729376,
        "Mean Anomaly(deg)": 128.85136722328835,
        "RAAN(deg)": 30.00803373909869,
        "Satellite Name": "Starlink Shell 3 1655",
        "Satellite Number": 1655,
        "Semi-Major Axis(m)": 6938478.169268562,
        "Time(s)": 770
    },
    {
        "Altitude(m)": 571426.3810329667,
        "Argument of Periapsis(deg)": -0.030930641071435925,
        "Eccentricity": 0.0,
        "Inclination(deg)": 97.0,
        "Latitude(deg)": 50.14065340536135,
        "Longitude(deg)": 115.19005950151652,
        "Mean Anomaly(deg)": 129.47684342099342,
        "RAAN(deg)": 30.008138073372695,
        "Satellite Name": "Starlink Shell 3 1655",
        "Satellite Number": 1655,
        "Semi-Major Axis(m)": 6938478.169268562,
        "Time(s)": 780
    },
    {
        "Altitude(m)": 571285.6731751987,
        "Argument of Periapsis(deg)": -0.031327187751838945,
        "Eccentricity": 0.0,
        "Inclination(deg)": 97.0,
        "Latitude(deg)": 49.526410448058975,
        "Longitude(deg)": 114.96616545939047,
        "Mean Anomaly(deg)": 130.1023196186985,
        "RAAN(deg)": 30.008242407646705,
        "Satellite Name": "Starlink Shell 3 1655",
        "Satellite Number": 1655,
        "Semi-Major Axis(m)": 6938478.169268562,
        "Time(s)": 790
    },
    {
        "Altitude(m)": 571144.8995527131,
        "Argument of Periapsis(deg)": -0.031723734432241975,
        "Eccentricity": 0.0,
        "Inclination(deg)": 97.0,
        "Latitude(deg)": 48.91181443021356,
        "Longitude(deg)": 114.74677339161404,
        "Mean Anomaly(deg)": 130.72779581640347,
        "RAAN(deg)": 30.008346741920718,
        "Satellite Name": "Starlink Shell 3 1655",
        "Satellite Number": 1655,
        "Semi-Major Axis(m)": 6938478.169268562,
        "Time(s)": 800
    },
    {
        "Altitude(m)": 571004.1460633049,
        "Argument of Periapsis(deg)": -0.032120281112645,
        "Eccentricity": 0.0,
        "Inclination(deg)": 97.0,
        "Latitude(deg)": 48.29687775518495,
        "Longitude(deg)": 114.53168074566338,
        "Mean Anomaly(deg)": 131.35327201410854,
        "RAAN(deg)": 30.00845107619472,
        "Satellite Name": "Starlink Shell 3 1655",
        "Satellite Number": 1655,
        "Semi-Major Axis(m)": 6938478.169268562,
        "Time(s)": 810
    },
    {
        "Altitude(m)": 570863.4988618328,
        "Argument of Periapsis(deg)": -0.03251682779304802,
        "Eccentricity": 0.0,
        "Inclination(deg)": 97.0,
        "Latitude(deg)": 47.68161214880237,
        "Longitude(deg)": 114.32069683876067,
        "Mean Anomaly(deg)": 131.97874821181358,
        "RAAN(deg)": 30.008555410468734,
        "Satellite Name": "Starlink Shell 3 1655",
        "Satellite Number": 1655,
        "Semi-Major Axis(m)": 6938478.169268562,
        "Time(s)": 820
    },
    {
        "Altitude(m)": 570723.0443170401,
        "Argument of Periapsis(deg)": -0.032913374473451044,
        "Eccentricity": 0.0,
        "Inclination(deg)": 97.0,
        "Latitude(deg)": 47.066028710131164,
        "Longitude(deg)": 114.11364105875951,
        "Mean Anomaly(deg)": 132.60422440951865,
        "RAAN(deg)": 30.008659744742744,
        "Satellite Name": "Starlink Shell 3 1655",
        "Satellite Number": 1655,
        "Semi-Major Axis(m)": 6938478.169268562,
        "Time(s)": 830
    },
    {
        "Altitude(m)": 570582.8689681666,
        "Argument of Periapsis(deg)": -0.03330992115385407,
        "Eccentricity": 0.0,
        "Inclination(deg)": 97.0,
        "Latitude(deg)": 46.45013795803776,
        "Longitude(deg)": 113.91034264206667,
        "Mean Anomaly(deg)": 133.22970060722366,
        "RAAN(deg)": 30.00876407901675,
        "Satellite Name": "Starlink Shell 3 1655",
        "Satellite Number": 1655,
        "Semi-Major Axis(m)": 6938478.169268562,
        "Time(s)": 840
    },
    {
        "Altitude(m)": 570443.0594814279,
        "Argument of Periapsis(deg)": -0.0337064678342571,
        "Eccentricity": 0.0,
        "Inclination(deg)": 97.0,
        "Latitude(deg)": 45.83394987394951,
        "Longitude(deg)": 113.7106405097833,
        "Mean Anomaly(deg)": 133.8551768049287,
        "RAAN(deg)": 30.00886841329076,
        "Satellite Name": "Starlink Shell 3 1655",
        "Satellite Number": 1655,
        "Semi-Major Axis(m)": 6938478.169268562,
        "Time(s)": 850
    },
    {
        "Altitude(m)": 570303.7026063004,
        "Argument of Periapsis(deg)": -0.03410301451466012,
        "Eccentricity": 0.0,
        "Inclination(deg)": 97.0,
        "Latitude(deg)": 45.21747394116368,
        "Longitude(deg)": 113.51438147576582,
        "Mean Anomaly(deg)": 134.48065300263374,
        "RAAN(deg)": 30.00897274756477,
        "Satellite Name": "Starlink Shell 3 1655",
        "Satellite Number": 1655,
        "Semi-Major Axis(m)": 6938478.169268562,
        "Time(s)": 860
    },
    {
        "Altitude(m)": 570164.8851317416,
        "Argument of Periapsis(deg)": -0.034499561195063144,
        "Eccentricity": 0.0,
        "Inclination(deg)": 97.0,
        "Latitude(deg)": 44.60071918101908,
        "Longitude(deg)": 113.3214210242559,
        "Mean Anomaly(deg)": 135.1061292003388,
        "RAAN(deg)": 30.009077081838775,
        "Satellite Name": "Starlink Shell 3 1655",
        "Satellite Number": 1655,
        "Semi-Major Axis(m)": 6938478.169268562,
        "Time(s)": 870
    },
    {
        "Altitude(m)": 570026.6938422377,
        "Argument of Periapsis(deg)": -0.03489610787546617,
        "Eccentricity": 0.0,
        "Inclination(deg)": 97.0,
        "Latitude(deg)": 43.9836941862179,
        "Longitude(deg)": 113.13162160985935,
        "Mean Anomaly(deg)": 135.73160539804385,
        "RAAN(deg)": 30.009181416112785,
        "Satellite Name": "Starlink Shell 3 1655",
        "Satellite Number": 1655,
        "Semi-Major Axis(m)": 6938478.169268562,
        "Time(s)": 880
    },
    {
        "Altitude(m)": 569889.2154738327,
        "Argument of Periapsis(deg)": -0.0352926545558692,
        "Eccentricity": 0.0,
        "Inclination(deg)": 97.0,
        "Latitude(deg)": 43.36640715154926,
        "Longitude(deg)": 112.94485267843585,
        "Mean Anomaly(deg)": 136.3570815957489,
        "RAAN(deg)": 30.0092857503868,
        "Satellite Name": "Starlink Shell 3 1655",
        "Satellite Number": 1655,
        "Semi-Major Axis(m)": 6938478.169268562,
        "Time(s)": 890
    },
    {
        "Altitude(m)": 569752.5366700595,
        "Argument of Periapsis(deg)": -0.035689201236272214,
        "Eccentricity": 0.0,
        "Inclination(deg)": 97.0,
        "Latitude(deg)": 42.74886590224536,
        "Longitude(deg)": 112.76099072443698,
        "Mean Anomaly(deg)": 136.98255779345394,
        "RAAN(deg)": 30.0093900846608,
        "Satellite Name": "Starlink Shell 3 1655",
        "Satellite Number": 1655,
        "Semi-Major Axis(m)": 6938478.169268562,
        "Time(s)": 900
    },
    {
        "Altitude(m)": 569616.7439378252,
        "Argument of Periapsis(deg)": -0.036085747916675244,
        "Eccentricity": 0.0,
        "Inclination(deg)": 97.0,
        "Latitude(deg)": 42.13107792017693,
        "Longitude(deg)": 112.57991786866808,
        "Mean Anomaly(deg)": 137.60803399115898,
        "RAAN(deg)": 30.009494418934814,
        "Satellite Name": "Starlink Shell 3 1655",
        "Satellite Number": 1655,
        "Semi-Major Axis(m)": 6938478.169268562,
        "Time(s)": 910
    },
    {
        "Altitude(m)": 569481.9236033178,
        "Argument of Periapsis(deg)": -0.03648229459707827,
        "Eccentricity": 0.0,
        "Inclination(deg)": 97.0,
        "Latitude(deg)": 41.513050368071575,
        "Longitude(deg)": 112.40152197938099,
        "Mean Anomaly(deg)": 138.23351018886402,
        "RAAN(deg)": 30.009598753208827,
        "Satellite Name": "Starlink Shell 3 1655",
        "Satellite Number": 1655,
        "Semi-Major Axis(m)": 6938478.169268562,
        "Time(s)": 920
    },
    {
        "Altitude(m)": 569348.161767869,
        "Argument of Periapsis(deg)": -0.0368788412774813,
        "Eccentricity": 0.0,
        "Inclination(deg)": 97.0,
        "Latitude(deg)": 40.894790111926035,
        "Longitude(deg)": 112.22569682124947,
        "Mean Anomaly(deg)": 138.85898638656906,
        "RAAN(deg)": 30.00970308748283,
        "Satellite Name": "Starlink Shell 3 1655",
        "Satellite Number": 1655,
        "Semi-Major Axis(m)": 6938478.169268562,
        "Time(s)": 930
    },
    {
        "Altitude(m)": 569215.5442638758,
        "Argument of Periapsis(deg)": -0.037275387957884314,
        "Eccentricity": 0.0,
        "Inclination(deg)": 97.0,
        "Latitude(deg)": 40.27630374176136,
        "Longitude(deg)": 112.05234071702033,
        "Mean Anomaly(deg)": 139.4844625842741,
        "RAAN(deg)": 30.009807421756843,
        "Satellite Name": "Starlink Shell 3 1655",
        "Satellite Number": 1655,
        "Semi-Major Axis(m)": 6938478.169268562,
        "Time(s)": 940
    }
]